[{"OBJECT_NAME":"STARLINK-35356","OBJECT_ID":"2025-221P","EPOCH":"2025-10-30T06:47:29.879808","MEAN_MOTION":15.50524119,"ECCENTRICITY":0.00057914,"INCLINATION":53.1607,"RA_OF_ASC_NODE":335.0563,"ARG_OF_PERICENTER":320.5308,"MEAN_ANOMALY":39.5279,"EPHEMERIS_TYPE":0,"CLASSIFICATION_TYPE":"U","NORAD_CAT_ID":65836,"ELEMENT_SET_NO":999,"REV_AT_EPOCH":475,"BSTAR":0.0021809188,"MEAN_MOTION_DOT":0.00128318,"MEAN_MOTION_DDOT":0},{"OBJECT_NAME":"STARLINK-35314","OBJECT_ID":"2025-221Q","EPOCH":"2025-10-30T06:46:00.836832","MEAN_MOTION":15.50541318,"ECCENTRICITY":0.00054561,"INCLINATION":53.1621,"RA_OF_ASC_NODE":335.0502,"ARG_OF_PERICENTER":316.6011,"MEAN_ANOMALY":43.4568,"EPHEMERIS_TYPE":0,"CLASSIFICATION_TYPE":"U","NORAD_CAT_ID":65837,"ELEMENT_SET_NO":999,"REV_AT_EPOCH":475,"BSTAR":0.00292021,"MEAN_MOTION_DOT":0.00173048,"MEAN_MOTION_DDOT":0},{"OBJECT_NAME":"STARLINK-35324","OBJECT_ID":"2025-221R","EPOCH":"2025-10-29T23:02:35.413440","MEAN_MOTION":15.46868978,"ECCENTRICITY":0.00190567,"INCLINATION":53.1598,"RA_OF_ASC_NODE":336.5961,"ARG_OF_PERICENTER":110.7228,"MEAN_ANOMALY":249.5825,"EPHEMERIS_TYPE":0,"CLASSIFICATION_TYPE":"U","NORAD_CAT_ID":65838,"ELEMENT_SET_NO":999,"REV_AT_EPOCH":470,"BSTAR":-0.033641568,"MEAN_MOTION_DOT":-0.01565938,"MEAN_MOTION_DDOT":0},{"OBJECT_NAME":"STARLINK-35102","OBJECT_ID":"2025-221S","EPOCH":"2025-10-30T06:45:30.575232","MEAN_MOTION":15.50165157,"ECCENTRICITY":0.00011167,"INCLINATION":53.1599,"RA_OF_ASC_NODE":335.0459,"ARG_OF_PERICENTER":300.564,"MEAN_ANOMALY":59.5259,"EPHEMERIS_TYPE":0,"CLASSIFICATION_TYPE":"U","NORAD_CAT_ID":65839,"ELEMENT_SET_NO":999,"REV_AT_EPOCH":475,"BSTAR":0.0025947359,"MEAN_MOTION_DOT":0.00151191,"MEAN_MOTION_DDOT":0},{"OBJECT_NAME":"STARLINK-35364","OBJECT_ID":"2025-221T","EPOCH":"2025-10-30T06:00:02.000160","MEAN_MOTION":15.49356584,"ECCENTRICITY":0.00013246,"INCLINATION":53.1599,"RA_OF_ASC_NODE":335.198,"ARG_OF_PERICENTER":83.0246,"MEAN_ANOMALY":100.8732,"EPHEMERIS_TYPE":0,"CLASSIFICATION_TYPE":"U","NORAD_CAT_ID":65840,"ELEMENT_SET_NO":999,"REV_AT_EPOCH":610,"BSTAR":-0.0021711378,"MEAN_MOTION_DOT":-0.00119571,"MEAN_MOTION_DDOT":0},{"OBJECT_NAME":"STARLINK-35238","OBJECT_ID":"2025-221U","EPOCH":"2025-10-30T06:44:02.104224","MEAN_MOTION":15.50567763,"ECCENTRICITY":0.00056077,"INCLINATION":53.1609,"RA_OF_ASC_NODE":335.0409,"ARG_OF_PERICENTER":316.145,"MEAN_ANOMALY":43.9114,"EPHEMERIS_TYPE":0,"CLASSIFICATION_TYPE":"U","NORAD_CAT_ID":65841,"ELEMENT_SET_NO":999,"REV_AT_EPOCH":475,"BSTAR":0.0040721451,"MEAN_MOTION_DOT":0.00243923,"MEAN_MOTION_DDOT":0},{"OBJECT_NAME":"STARLINK-35298","OBJECT_ID":"2025-221V","EPOCH":"2025-10-30T06:44:31.623648","MEAN_MOTION":15.56207238,"ECCENTRICITY":0.00314047,"INCLINATION":53.1599,"RA_OF_ASC_NODE":335.0437,"ARG_OF_PERICENTER":275.4108,"MEAN_ANOMALY":84.3322,"EPHEMERIS_TYPE":0,"CLASSIFICATION_TYPE":"U","NORAD_CAT_ID":65842,"ELEMENT_SET_NO":999,"REV_AT_EPOCH":475,"BSTAR":0.030974235,"MEAN_MOTION_DOT":0.02589168,"MEAN_MOTION_DDOT":0},{"OBJECT_NAME":"STARLINK-35301","OBJECT_ID":"2025-221W","EPOCH":"2025-10-30T06:43:02.787168","MEAN_MOTION":15.50517975,"ECCENTRICITY":0.00056818,"INCLINATION":53.1606,"RA_OF_ASC_NODE":335.0354,"ARG_OF_PERICENTER":315.0905,"MEAN_ANOMALY":44.9644,"EPHEMERIS_TYPE":0,"CLASSIFICATION_TYPE":"U","NORAD_CAT_ID":65843,"ELEMENT_SET_NO":999,"REV_AT_EPOCH":475,"BSTAR":0.0017721844,"MEAN_MOTION_DOT":0.00103834,"MEAN_MOTION_DDOT":0},{"OBJECT_NAME":"STARLINK-35148","OBJECT_ID":"2025-221X","EPOCH":"2025-10-30T06:43:33.267360","MEAN_MOTION":15.50491898,"ECCENTRICITY":0.00057922,"INCLINATION":53.16,"RA_OF_ASC_NODE":335.0411,"ARG_OF_PERICENTER":325.6677,"MEAN_ANOMALY":34.3957,"EPHEMERIS_TYPE":0,"CLASSIFICATION_TYPE":"U","NORAD_CAT_ID":65844,"ELEMENT_SET_NO":999,"REV_AT_EPOCH":475,"BSTAR":0.0019796053,"MEAN_MOTION_DOT":0.00116117,"MEAN_MOTION_DDOT":0},{"OBJECT_NAME":"STARLINK-35302","OBJECT_ID":"2025-221Y","EPOCH":"2025-10-29T19:52:47.681760","MEAN_MOTION":15.49344096,"ECCENTRICITY":0.00017349,"INCLINATION":53.1604,"RA_OF_ASC_NODE":337.1945,"ARG_OF_PERICENTER":86.2868,"MEAN_ANOMALY":273.834,"EPHEMERIS_TYPE":0,"CLASSIFICATION_TYPE":"U","NORAD_CAT_ID":65845,"ELEMENT_SET_NO":999,"REV_AT_EPOCH":468,"BSTAR":0.0019865879,"MEAN_MOTION_DOT":0.0011177,"MEAN_MOTION_DDOT":0},{"OBJECT_NAME":"STARLINK-35290","OBJECT_ID":"2025-221Z","EPOCH":"2025-10-30T06:41:15.185472","MEAN_MOTION":15.53720066,"ECCENTRICITY":0.0025615,"INCLINATION":53.1605,"RA_OF_ASC_NODE":335.0281,"ARG_OF_PERICENTER":277.6479,"MEAN_ANOMALY":82.1623,"EPHEMERIS_TYPE":0,"CLASSIFICATION_TYPE":"U","NORAD_CAT_ID":65846,"ELEMENT_SET_NO":999,"REV_AT_EPOCH":475,"BSTAR":0.067518616,"MEAN_MOTION_DOT":0.05153056,"MEAN_MOTION_DDOT":0},{"OBJECT_NAME":"STARLINK-35262","OBJECT_ID":"2025-221AA","EPOCH":"2025-10-30T06:40:34.443552","MEAN_MOTION":15.50511984,"ECCENTRICITY":0.00055137,"INCLINATION":53.1603,"RA_OF_ASC_NODE":335.025,"ARG_OF_PERICENTER":323.5551,"MEAN_ANOMALY":36.5083,"EPHEMERIS_TYPE":0,"CLASSIFICATION_TYPE":"U","NORAD_CAT_ID":65847,"ELEMENT_SET_NO":999,"REV_AT_EPOCH":610,"BSTAR":0.0016481626,"MEAN_MOTION_DOT":0.0009642,"MEAN_MOTION_DDOT":0},{"OBJECT_NAME":"STARLINK-35308","OBJECT_ID":"2025-221AB","EPOCH":"2025-10-30T06:42:03.378528","MEAN_MOTION":15.50554443,"ECCENTRICITY":0.00057646,"INCLINATION":53.1602,"RA_OF_ASC_NODE":335.0302,"ARG_OF_PERICENTER":315.6611,"MEAN_ANOMALY":44.3937,"EPHEMERIS_TYPE":0,"CLASSIFICATION_TYPE":"U","NORAD_CAT_ID":65848,"ELEMENT_SET_NO":999,"REV_AT_EPOCH":610,"BSTAR":0.0035887596,"MEAN_MOTION_DOT":0.00213998,"MEAN_MOTION_DDOT":0},{"OBJECT_NAME":"STARLINK-35231","OBJECT_ID":"2025-221AC","EPOCH":"2025-10-30T06:41:04.110720","MEAN_MOTION":15.50519215,"ECCENTRICITY":0.00056147,"INCLINATION":53.1604,"RA_OF_ASC_NODE":335.0253,"ARG_OF_PERICENTER":316.2704,"MEAN_ANOMALY":43.7861,"EPHEMERIS_TYPE":0,"CLASSIFICATION_TYPE":"U","NORAD_CAT_ID":65849,"ELEMENT_SET_NO":999,"REV_AT_EPOCH":610,"BSTAR":0.00220007,"MEAN_MOTION_DOT":0.0012944,"MEAN_MOTION_DDOT":0},{"OBJECT_NAME":"STARLINK-35252","OBJECT_ID":"2025-221AD","EPOCH":"2025-10-29T19:50:19.111776","MEAN_MOTION":15.4934462,"ECCENTRICITY":0.00014191,"INCLINATION":53.1601,"RA_OF_ASC_NODE":337.1834,"ARG_OF_PERICENTER":67.521,"MEAN_ANOMALY":292.5949,"EPHEMERIS_TYPE":0,"CLASSIFICATION_TYPE":"U","NORAD_CAT_ID":65850,"ELEMENT_SET_NO":999,"REV_AT_EPOCH":603,"BSTAR":0.0019881125,"MEAN_MOTION_DOT":0.00111859,"MEAN_MOTION_DDOT":0},{"OBJECT_NAME":"STARLINK-35208","OBJECT_ID":"2025-223A","EPOCH":"2025-10-30T03:39:02.392128","MEAN_MOTION":15.39576269,"ECCENTRICITY":0.00015215,"INCLINATION":53.1591,"RA_OF_ASC_NODE":183.0708,"ARG_OF_PERICENTER":87.3267,"MEAN_ANOMALY":272.7912,"EPHEMERIS_TYPE":0,"CLASSIFICATION_TYPE":"U","NORAD_CAT_ID":65854,"ELEMENT_SET_NO":999,"REV_AT_EPOCH":418,"BSTAR":0.0016318926,"MEAN_MOTION_DOT":0.00065342,"MEAN_MOTION_DDOT":0},{"OBJECT_NAME":"STARLINK-35200","OBJECT_ID":"2025-223B","EPOCH":"2025-10-30T06:00:02.000160","MEAN_MOTION":15.42218746,"ECCENTRICITY":0.00011402,"INCLINATION":53.1591,"RA_OF_ASC_NODE":182.2571,"ARG_OF_PERICENTER":116.9386,"MEAN_ANOMALY":243.6775,"EPHEMERIS_TYPE":0,"CLASSIFICATION_TYPE":"U","NORAD_CAT_ID":65855,"ELEMENT_SET_NO":999,"REV_AT_EPOCH":549,"BSTAR":-0.050070474,"MEAN_MOTION_DOT":-0.01951492,"MEAN_MOTION_DDOT":0},{"OBJECT_NAME":"STARLINK-35459","OBJECT_ID":"2025-223C","EPOCH":"2025-10-30T06:00:02.000160","MEAN_MOTION":15.39592394,"ECCENTRICITY":0.00012264,"INCLINATION":53.1605,"RA_OF_ASC_NODE":182.4557,"ARG_OF_PERICENTER":80.4064,"MEAN_ANOMALY":179.9416,"EPHEMERIS_TYPE":0,"CLASSIFICATION_TYPE":"U","NORAD_CAT_ID":65856,"ELEMENT_SET_NO":999,"REV_AT_EPOCH":549,"BSTAR":0.00064311037,"MEAN_MOTION_DOT":0.00025387,"MEAN_MOTION_DDOT":0},{"OBJECT_NAME":"STARLINK-35489","OBJECT_ID":"2025-223D","EPOCH":"2025-10-30T04:20:53.012832","MEAN_MOTION":15.49344362,"ECCENTRICITY":0.00011175,"INCLINATION":53.1599,"RA_OF_ASC_NODE":182.5384,"ARG_OF_PERICENTER":104.0927,"MEAN_ANOMALY":256.0207,"EPHEMERIS_TYPE":0,"CLASSIFICATION_TYPE":"U","NORAD_CAT_ID":65857,"ELEMENT_SET_NO":999,"REV_AT_EPOCH":419,"BSTAR":0.0013790846,"MEAN_MOTION_DOT":0.00077107,"MEAN_MOTION_DDOT":0},{"OBJECT_NAME":"STARLINK-35199","OBJECT_ID":"2025-223E","EPOCH":"2025-10-30T06:00:02.000160","MEAN_MOTION":15.39598805,"ECCENTRICITY":0.00012745,"INCLINATION":53.1602,"RA_OF_ASC_NODE":182.3533,"ARG_OF_PERICENTER":107.9307,"MEAN_ANOMALY":203.8888,"EPHEMERIS_TYPE":0,"CLASSIFICATION_TYPE":"U","NORAD_CAT_ID":65858,"ELEMENT_SET_NO":999,"REV_AT_EPOCH":549,"BSTAR":0.00071403273,"MEAN_MOTION_DOT":0.00028247,"MEAN_MOTION_DDOT":0},{"OBJECT_NAME":"STARLINK-35408","OBJECT_ID":"2025-223F","EPOCH":"2025-10-30T03:32:21.561792","MEAN_MOTION":15.39622212,"ECCENTRICITY":0.00010653,"INCLINATION":53.1601,"RA_OF_ASC_NODE":183.0399,"ARG_OF_PERICENTER":68.3996,"MEAN_ANOMALY":291.7122,"EPHEMERIS_TYPE":0,"CLASSIFICATION_TYPE":"U","NORAD_CAT_ID":65859,"ELEMENT_SET_NO":999,"REV_AT_EPOCH":418,"BSTAR":0.0016747288,"MEAN_MOTION_DOT":0.00067185,"MEAN_MOTION_DDOT":0},{"OBJECT_NAME":"STARLINK-35303","OBJECT_ID":"2025-223G","EPOCH":"2025-10-30T06:00:02.000160","MEAN_MOTION":15.39599658,"ECCENTRICITY":0.0001126,"INCLINATION":53.1605,"RA_OF_ASC_NODE":182.4049,"ARG_OF_PERICENTER":100.3222,"MEAN_ANOMALY":185.7576,"EPHEMERIS_TYPE":0,"CLASSIFICATION_TYPE":"U","NORAD_CAT_ID":65860,"ELEMENT_SET_NO":999,"REV_AT_EPOCH":549,"BSTAR":0.00071662132,"MEAN_MOTION_DOT":0.00028352,"MEAN_MOTION_DDOT":0},{"OBJECT_NAME":"STARLINK-35258","OBJECT_ID":"2025-223H","EPOCH":"2025-10-30T04:19:53.542848","MEAN_MOTION":15.49334414,"ECCENTRICITY":6.362e-5,"INCLINATION":53.1593,"RA_OF_ASC_NODE":182.5336,"ARG_OF_PERICENTER":124.6406,"MEAN_ANOMALY":235.4663,"EPHEMERIS_TYPE":0,"CLASSIFICATION_TYPE":"U","NORAD_CAT_ID":65861,"ELEMENT_SET_NO":999,"REV_AT_EPOCH":419,"BSTAR":0.00086131677,"MEAN_MOTION_DOT":0.00047791,"MEAN_MOTION_DDOT":0}]
